$$SOE
2460721.500000000, A.D. 2025-Feb-15 00:00:00.0000, 4.005497504063234E+08, 2.383227521898881E+08, -6.122389322828615E+07,
2460728.500000000, A.D. 2025-Feb-22 00:00:00.0000, 3.947809936834360E+08, 2.469799638813783E+08, -5.961477720851222E+07,
2460735.500000000, A.D. 2025-Mar-01 00:00:00.0000, 3.888269758296154E+08, 2.555213300820735E+08, -5.797768242723617E+07,
2460742.500000000, A.D. 2025-Mar-08 00:00:00.0000, 3.826897861211251E+08, 2.639423825158360E+08, -5.631327212040083E+07,
2460749.500000000, A.D. 2025-Mar-15 00:00:00.0000, 3.763716375152887E+08, 2.722386905760984E+08, -5.462223051206978E+07,
2460756.500000000, A.D. 2025-Mar-22 00:00:00.0000, 3.698748642849320E+08, 2.804058659104574E+08, -5.290526229564372E+07,
2460763.500000000, A.D. 2025-Mar-29 00:00:00.0000, 3.632019208599919E+08, 2.884395647877177E+08, -5.116309239114977E+07,
2460770.500000000, A.D. 2025-Apr-05 00:00:00.0000, 3.563553821979185E+08, 2.963354913767850E+08, -4.939646575201121E+07,
2460777.500000000, A.D. 2025-Apr-12 00:00:00.0000, 3.493379437523472E+08, 3.040894020330974E+08, -4.760614703602311E+07,
2460784.500000000, A.D. 2025-Apr-19 00:00:00.0000, 3.421524208495073E+08, 3.116971097035107E+08, -4.579292019554909E+07,
2460791.500000000, A.D. 2025-Apr-26 00:00:00.0000, 3.348017477415126E+08, 3.191544882385863E+08, -4.395758802876693E+07,
2460798.500000000, A.D. 2025-May-03 00:00:00.0000, 3.272889764481474E+08, 3.264574766230803E+08, -4.210097170119777E+07,
2460805.500000000, A.D. 2025-May-10 00:00:00.0000, 3.196172754140876E+08, 3.336020831246578E+08, -4.022391023985632E+07,
2460812.500000000, A.D. 2025-May-17 00:00:00.0000, 3.117899280171144E+08, 3.405843893109937E+08, -3.832726000722326E+07,
2460819.500000000, A.D. 2025-May-24 00:00:00.0000, 3.038103311007231E+08, 3.474005538720324E+08, -3.641189417601766E+07,
2460826.500000000, A.D. 2025-May-31 00:00:00.0000, 2.956819939494409E+08, 3.540468165495167E+08, -3.447870221841644E+07,
2460833.500000000, A.D. 2025-Jun-07 00:00:00.0000, 2.874085373069767E+08, 3.605195033682805E+08, -3.252858927526122E+07,
2460840.500000000, A.D. 2025-Jun-14 00:00:00.0000, 2.789936900719102E+08, 3.668150324912513E+08, -3.056247524328576E+07,
2460847.500000000, A.D. 2025-Jun-21 00:00:00.0000, 2.704412848881331E+08, 3.729299174191762E+08, -2.858129396003047E+07,
2460854.500000000, A.D. 2025-Jun-28 00:00:00.0000, 2.617552557626500E+08, 3.788607692921041E+08, -2.658599263056444E+07,
2460861.500000000, A.D. 2025-Jul-05 00:00:00.0000, 2.529396361973456E+08, 3.846043004384760E+08, -2.457753118178031E+07,
2460868.500000000, A.D. 2025-Jul-12 00:00:00.0000, 2.439985566462591E+08, 3.901573283566163E+08, -2.255688150182912E+07,
2460875.500000000, A.D. 2025-Jul-19 00:00:00.0000, 2.349362414916426E+08, 3.955167795447879E+08, -2.052502663027914E+07,
2460882.500000000, A.D. 2025-Jul-26 00:00:00.0000, 2.257570057534765E+08, 4.006796931147870E+08, -1.848295992421545E+07,
2460889.500000000, A.D. 2025-Aug-02 00:00:00.0000, 2.164652516033576E+08, 4.056432242023904E+08, -1.643168420591497E+07,
2460896.500000000, A.D. 2025-Aug-09 00:00:00.0000, 2.070654647124327E+08, 4.104046471517110E+08, -1.437221089688361E+07,
2460903.500000000, A.D. 2025-Aug-16 00:00:00.0000, 1.975622105171201E+08, 4.149613584017500E+08, -1.230555915193880E+07,
2460910.500000000, A.D. 2025-Aug-23 00:00:00.0000, 1.879601307022803E+08, 4.193108790830187E+08, -1.023275502031177E+07,
2460917.500000000, A.D. 2025-Aug-30 00:00:00.0000, 1.782639402381010E+08, 4.234508580298852E+08, -8.154830607172906E+06,
2460924.500000000, A.D. 2025-Sep-06 00:00:00.0000, 1.684784235599358E+08, 4.273790761997600E+08, -6.072823025446743E+06,
2460931.500000000, A.D. 2025-Sep-13 00:00:00.0000, 1.586084282254609E+08, 4.310934500070630E+08, -3.987773189039141E+06,
2460938.500000000, A.D. 2025-Sep-20 00:00:00.0000, 1.486588593281954E+08, 4.345920319244452E+08, -1.900724883677334E+06,
2460945.500000000, A.D. 2025-Sep-27 00:00:00.0000, 1.386346757367516E+08, 4.378730114616356E+08, 1.872760397204161E+05,
2460952.500000000, A.D. 2025-Oct-04 00:00:00.0000, 1.285408861543464E+08, 4.409347170567351E+08, 2.275182576179147E+06,
2460959.500000000, A.D. 2025-Oct-11 00:00:00.0000, 1.183825446352452E+08, 4.437756179323720E+08, 4.361947537617624E+06,
2460966.500000000, A.D. 2025-Oct-18 00:00:00.0000, 1.081647458522013E+08, 4.463943256384521E+08, 6.446524533188999E+06,
2460973.500000000, A.D. 2025-Oct-25 00:00:00.0000, 9.789262026478179E+07, 4.487895952891632E+08, 8.527868945042908E+06,
2460980.500000000, A.D. 2025-Nov-01 00:00:00.0000, 8.757132923828515E+07, 4.509603265070404E+08, 1.060493889502794E+07,
2460987.500000000, A.D. 2025-Nov-08 00:00:00.0000, 7.720606015804541E+07, 4.529055640407709E+08, 1.267669619443381E+07,
2460994.500000000, A.D. 2025-Nov-15 00:00:00.0000, 6.680202169725819E+07, 4.546244979971131E+08, 1.474210725626096E+07,
2461001.500000000, A.D. 2025-Nov-22 00:00:00.0000, 5.636443965135439E+07, 4.561164639070397E+08, 1.680014394893730E+07,
2461008.500000000, A.D. 2025-Nov-29 00:00:00.0000, 4.589855319671069E+07, 4.573809437624345E+08, 1.884978449616748E+07,
2461015.500000000, A.D. 2025-Dec-06 00:00:00.0000, 3.540960930842422E+07, 4.584175678876162E+08, 2.089001461847857E+07,
2461022.500000000, A.D. 2025-Dec-13 00:00:00.0000, 2.490285578091740E+07, 4.592261142733871E+08, 2.291982859921044E+07,
2461029.500000000, A.D. 2025-Dec-20 00:00:00.0000, 1.438353635292155E+07, 4.598065063992422E+08, 2.493823003638646E+07,
2461036.500000000, A.D. 2025-Dec-27 00:00:00.0000, 3.856886873940749E+06, 4.601588121395522E+08, 2.694423258877826E+07,
2461043.500000000, A.D. 2026-Jan-03 00:00:00.0000, -6.671868936560341E+06, 4.602832431405182E+08, 2.893686079777551E+07,
2461050.500000000, A.D. 2026-Jan-10 00:00:00.0000, -1.719752401860447E+07, 4.601801539922698E+08, 3.091515091782996E+07,
2461057.500000000, A.D. 2026-Jan-17 00:00:00.0000, -2.771489254869847E+07, 4.598500411096911E+08, 3.287815172519007E+07,
2461064.500000000, A.D. 2026-Jan-24 00:00:00.0000, -3.821881447785419E+07, 4.592935413509784E+08, 3.482492529835844E+07,
2461071.500000000, A.D. 2026-Jan-31 00:00:00.0000, -4.870415999856869E+07, 4.585114303735141E+08, 3.675454776640436E+07,
2461078.500000000, A.D. 2026-Feb-07 00:00:00.0000, -5.916583387076368E+07, 4.575046206769888E+08, 3.866611001381594E+07,
2461085.500000000, A.D. 2026-Feb-14 00:00:00.0000, -6.959877934555148E+07, 4.562741593258780E+08, 4.055871831652346E+07,
2461092.500000000, A.D. 2026-Feb-21 00:00:00.0000, -7.999798129191956E+07, 4.548212259361442E+08, 4.243149491990903E+07,
2461099.500000000, A.D. 2026-Feb-28 00:00:00.0000, -9.035846960408781E+07, 4.531471320885484E+08, 4.428357875187087E+07,
2461106.500000000, A.D. 2026-Mar-07 00:00:00.0000, -1.006753249400151E+08, 4.512533202262249E+08, 4.611412629954234E+07,
2461113.500000000, A.D. 2026-Mar-14 00:00:00.0000, -1.109436840092145E+08, 4.491413597085229E+08, 4.792231220355433E+07,
2461120.500000000, A.D. 2026-Mar-21 00:00:00.0000, -1.211587426238062E+08, 4.468129429275836E+08, 4.970732964282626E+07,
2461127.500000000, A.D. 2026-Mar-28 00:00:00.0000, -1.313157585173505E+08, 4.442698825269822E+08, 5.146839077803627E+07,
2461134.500000000, A.D. 2026-Apr-04 00:00:00.0000, -1.414100545300364E+08, 4.415141087653687E+08, 5.320472722992063E+07,
2461141.500000000, A.D. 2026-Apr-11 00:00:00.0000, -1.514370218823603E+08, 4.385476666735402E+08, 5.491559053772128E+07,
2461148.500000000, A.D. 2026-Apr-18 00:00:00.0000, -1.613921233744505E+08, 4.353727130072466E+08, 5.660025258262819E+07,
2461155.500000000, A.D. 2026-Apr-25 00:00:00.0000, -1.712708964615726E+08, 4.319915130195141E+08, 5.825800597324216E+07,
2461162.500000000, A.D. 2026-May-02 00:00:00.0000, -1.810689561714323E+08, 4.284064370314317E+08, 5.988816438774452E+07,
2461169.500000000, A.D. 2026-May-09 00:00:00.0000, -1.907819977354306E+08, 4.246199567428586E+08, 6.149006285571989E+07,
2461176.500000000, A.D. 2026-May-16 00:00:00.0000, -2.004057985539486E+08, 4.206346414284496E+08, 6.306305795603222E+07,
2461183.500000000, A.D. 2026-May-23 00:00:00.0000, -2.099362194439186E+08, 4.164531550490670E+08, 6.460652800961423E+07,
2461190.500000000, A.D. 2026-May-30 00:00:00.0000, -2.193692072484518E+08, 4.120782546081445E+08, 6.611987348448607E+07,
2461197.500000000, A.D. 2026-Jun-06 00:00:00.0000, -2.287007991255544E+08, 4.075127864895838E+08, 6.760251737513322E+07,
2461204.500000000, A.D. 2026-Jun-13 00:00:00.0000, -2.379271248500287E+08, 4.027596809836731E+08, 6.905390523656714E+07,
2461211.500000000, A.D. 2026-Jun-20 00:00:00.0000, -2.470444076320668E+08, 3.978219479367298E+08, 7.047350515891050E+07,
2461218.500000000, A.D. 2026-Jun-27 00:00:00.0000, -2.560489651519712E+08, 3.927026731951663E+08, 7.186080781120519E+07,
2461225.500000000, A.D. 2026-Jul-04 00:00:00.0000, -2.649372108113904E+08, 3.874050150772001E+08, 7.321532649142836E+07,
2461232.500000000, A.D. 2026-Jul-11 00:00:00.0000, -2.737056549483854E+08, 3.819322007472014E+08, 7.453659714894220E+07,
2461239.500000000, A.D. 2026-Jul-18 00:00:00.0000, -2.823509059256950E+08, 3.762875225251521E+08, 7.582417837342152E+07,
2461246.500000000, A.D. 2026-Jul-25 00:00:00.0000, -2.908696710703267E+08, 3.704743341405746E+08, 7.707765134884174E+07,
2461253.500000000, A.D. 2026-Aug-01 00:00:00.0000, -2.992587574192798E+08, 3.644960468892448E+08, 7.829661976491126E+07,
2461260.500000000, A.D. 2026-Aug-08 00:00:00.0000, -3.075150720596913E+08, 3.583561256629032E+08, 7.948070966414601E+07,
2461267.500000000, A.D. 2026-Aug-15 00:00:00.0000, -3.156356216519418E+08, 3.520580853080472E+08, 8.062956922426948E+07,
2461274.500000000, A.D. 2026-Aug-22 00:00:00.0000, -3.236175119012055E+08, 3.456054885407580E+08, 8.174286864670996E+07,
2461281.500000000, A.D. 2026-Aug-29 00:00:00.0000, -3.314579492713717E+08, 3.390019440513591E+08, 8.282030025040613E+07,
2461288.500000000, A.D. 2026-Sep-05 00:00:00.0000, -3.391542428105673E+08, 3.322511019362785E+08, 8.386157834194194E+07,
$$EOE